NORAD_CAT_ID,OBJECT_NAME,OBJECT_TYPE,EPOCH,MEAN_MOTION,ECCENTRICITY,INCLINATION,RA_OF_ASC_NODE,ARG_OF_PERICENTER,MEAN_ANOMALY,BSTAR,MEAN_MOTION_DOT,MEAN_MOTION_DDOT,TLE_LINE0,TLE_LINE1,TLE_LINE2,SEMIMAJOR_AXIS,PERIOD,APOGEE,PERIGEE,DECAYED
53540.0,STARLINK-4486,PAYLOAD,2023-01-09 08:15:09,15.08836435,0.0002014,53.2169,210.6604,41.4172,318.6972,5.7389e-05,6.25e-06,0.0,0 STARLINK-4486,1 53540U 22101P   23009.34385741  .00000625  00000-0  57389-4 0  9991,2 53540  53.2169 210.6604 0002014  41.4172 318.6972 15.08836435 22575,6917.891,95.438,541.15,538.363,0.0
53540.0,STARLINK-4486,PAYLOAD,2023-01-09 16:12:04,15.08839226,0.000204,53.2168,209.1734,42.3239,317.791,7.660100000000001e-05,9.31e-06,0.0,0 STARLINK-4486,1 53540U 22101P   23009.67505605  .00000931  00000-0  76601-4 0  9998,2 53540  53.2168 209.1734 0002040  42.3239 317.7910 15.08839226 21936,6917.883000000002,95.438,541.159,538.337,0.0
53540.0,STARLINK-4486,PAYLOAD,2023-01-10 06:30:32,15.08841262,0.0002104,53.2166,206.4971,43.9708,316.1451,0.00018,2.578e-05,0.0,0 STARLINK-4486,1 53540U 22101P   23010.27121312  .00002578  00000-0  18000-3 0  9992,2 53540  53.2166 206.4971 0002104  43.9708 316.1451 15.08841262 22719,6917.877,95.437,541.197,538.286,0.0
53540.0,STARLINK-4486,PAYLOAD,2023-01-10 19:13:37,15.08845963,0.0002255,53.2162,204.1182,46.2014,313.9164,0.00016059,2.269e-05,0.0,0 STARLINK-4486,1 53540U 22101P   23010.80113032  .00002269  00000-0  16059-3 0  9990,2 53540  53.2162 204.1182 0002255  46.2014 313.9164 15.08845963 22108,6917.861999999999,95.437,541.2869999999998,538.1669999999998,0.0
53540.0,STARLINK-4486,PAYLOAD,2023-01-11 06:21:20,15.08836933,0.0001992,53.2169,202.0362,44.6165,315.4987,7.5212e-06,-1.69e-06,0.0,0 STARLINK-4486,1 53540U 22101P   23011.26482126 -.00000169  00000-0  75212-5 0  9990,2 53540  53.2169 202.0362 0001992  44.6165 315.4987 15.08836933 22172,6917.89,95.438,541.133,538.377,0.0
53540.0,STARLINK-4486,PAYLOAD,2023-01-11 12:42:53,15.08828226,0.0002134,53.2167,200.8471,45.3138,314.8027,-7.1162e-05,-1.42e-05,0.0,0 STARLINK-4486,1 53540U 22101P   23011.52978993 -.00001420  00000-0 -71162-4 0  9992,2 53540  53.2167 200.8471 0002134  45.3138 314.8027 15.08828226 22909,6917.916,95.438,541.258,538.305,0.0
53540.0,STARLINK-4486,PAYLOAD,2023-01-11 15:53:40,15.08828811,0.000215,53.2167,200.2525,45.3997,314.717,-6.798399999999999e-05,-1.3699999999999998e-05,0.0,0 STARLINK-4486,1 53540U 22101P   23011.66226996 -.00001370  00000-0 -67984-4 0  9997,2 53540  53.2167 200.2525 0002150  45.3997 314.7170 15.08828811 22238,6917.915,95.438,541.2669999999998,538.2919999999998,0.0
53540.0,STARLINK-4486,PAYLOAD,2023-01-12 18:55:12,15.08842505,0.0002174,53.2167,195.1973,47.2655,312.8520000000001,-3.0893000000000004e-05,-7.8e-06,0.0,0 STARLINK-4486,1 53540U 22101P   23012.78834295 -.00000780  00000-0 -30893-4 0  9991,2 53540  53.2167 195.1973 0002174  47.2655 312.8520 15.08842505 22408,6917.873000000001,95.437,541.242,538.234,0.0
53540.0,STARLINK-4486,PAYLOAD,2023-01-13 12:24:27,15.08838165,0.0002125,53.2164,191.9267,48.9847,311.1328,0.00018492,2.656e-05,0.0,0 STARLINK-4486,1 53540U 22101P   23013.51698152  .00002656  00000-0  18492-3 0  9995,2 53540  53.2164 191.9267 0002125  48.9847 311.1328 15.08838165 23206,6917.886,95.438,541.221,538.281,0.0
53540.0,STARLINK-4486,PAYLOAD,2023-01-13 21:56:45,15.08847738,0.0002154,53.2173,190.1419,45.8192,314.2977,0.00021549,3.144e-05,0.0,0 STARLINK-4486,1 53540U 22101P   23013.91441567  .00003144  00000-0  21549-3 0  9995,2 53540  53.2173 190.1419 0002154  45.8192 314.2977 15.08847738 23263,6917.857,95.437,541.212,538.232,0.0
53540.0,STARLINK-4486,PAYLOAD,2023-01-14 07:29:05,15.08843314,0.000244,53.2152,188.3577,54.6799,305.4421,-4.0724e-05,-9.37e-06,0.0,0 STARLINK-4486,1 53540U 22101P   23014.31186930 -.00000937  00000-0 -40724-4 0  9996,2 53540  53.2152 188.3577 0002440  54.6799 305.4421 15.08843314 22635,6917.87,95.437,541.423,538.047,0.0
53540.0,STARLINK-4486,PAYLOAD,2023-01-15 10:30:38,15.08843404,0.0002217,53.2177,183.304,58.665,301.4559,-2.2588e-05,-6.48e-06,0.0,0 STARLINK-4486,1 53540U 22101P   23015.43794770 -.00000648  00000-0 -22588-4 0  9994,2 53540  53.2177 183.3040 0002217  58.6650 301.4559 15.08843404 22801,6917.87,95.437,541.269,538.201,0.0
53540.0,STARLINK-4486,PAYLOAD,2023-01-15 16:52:10,15.08867131,0.0003038,53.2173,182.114,58.1254,302.0034,-0.00030096,-5.079e-05,0.0,0 STARLINK-4486,1 53540U 22101P   23015.70289981 -.00005079  00000-0 -30096-3 0  9992,2 53540  53.2173 182.1140 0003038  58.1254 302.0034 15.08867131 22844,6917.797,95.436,541.764,537.561,0.0
53540.0,STARLINK-4486,PAYLOAD,2023-01-16 03:59:52,15.08842268,0.0002322,53.2176,180.0325,61.5042,298.6184,0.00014969,2.095e-05,0.0,0 STARLINK-4486,1 53540U 22101P   23016.16658413  .00002095  00000-0  14969-3 0  9997,2 53540  53.2176 180.0325 0002322  61.5042 298.6184 15.08842268 22915,6917.8730000000005,95.437,541.345,538.132,0.0
53540.0,STARLINK-4486,PAYLOAD,2023-01-16 18:18:19,15.08872615,0.0001774999999999,53.2166,177.3561,51.4566,308.6585,0.00059968,9.277e-05,0.0,0 STARLINK-4486,1 53540U 22101P   23016.76272854  .00009277  00000-0  59968-3 0  9991,2 53540  53.2166 177.3561 0001775  51.4566 308.6585 15.08872615 23002,6917.781,95.435,540.874,538.418,0.0
53540.0,STARLINK-4486,PAYLOAD,2023-01-17 03:50:38,15.0885119,0.0001578,53.2177,175.5722,55.0037,305.1103,0.00018411,2.644e-05,0.0,0 STARLINK-4486,1 53540U 22101P   23017.16017359  .00002644  00000-0  18411-3 0  9992,2 53540  53.2177 175.5722 0001578  55.0037 305.1103 15.08851190 23066,6917.846,95.437,540.803,538.62,0.0
53540.0,STARLINK-4486,PAYLOAD,2023-01-17 10:12:12,15.08837613,0.0001816,53.2177,174.3827,61.3017,298.8158,7.2052e-05,8.59e-06,0.0,0 STARLINK-4486,1 53540U 22101P   23017.42514575  .00000859  00000-0  72052-4 0  9991,2 53540  53.2177 174.3827 0001816  61.3017 298.8158 15.08837613 23109,6917.888000000001,95.438,541.009,538.496,0.0
53540.0,STARLINK-4486,PAYLOAD,2023-01-17 13:22:58,15.08836038,0.0001658,53.2175,173.7877,60.7709,299.3449,5.390100000000001e-05,5.7000000000000005e-06,0.0,0 STARLINK-4486,1 53540U 22101P   23017.55762701  .00000570  00000-0  53901-4 0  9993,2 53540  53.2175 173.7877 0001658  60.7709 299.3449 15.08836038 23817,6917.892,95.438,540.904,538.611,0.0
53540.0,STARLINK-4486,PAYLOAD,2023-01-17 19:44:30,15.08844938,0.0001514,53.2177,172.59799999999998,60.9287,299.1857,6.8031e-05,7.95e-06,0.0,0 STARLINK-4486,1 53540U 22101P   23017.82258047  .00000795  00000-0  68031-4 0  9995,2 53540  53.2177 172.5980 0001514  60.9287 299.1857 15.08844938 23858,6917.865,95.437,540.778,538.683,0.0
53540.0,STARLINK-4486,PAYLOAD,2023-01-18 03:41:26,15.08838678,0.0001511,53.2182,171.1116,53.5531,306.56,1.6693e-05,-2.2e-07,0.0,0 STARLINK-4486,1 53540U 22101P   23018.15378466 -.00000022  00000-0  16693-4 0  9991,2 53540  53.2182 171.1116 0001511  53.5531 306.5600 15.08838678 23906,6917.884,95.438,540.795,538.7040000000001,0.0
53540.0,STARLINK-4486,PAYLOAD,2023-01-18 17:59:54,15.08850624,0.0001396999999999,53.2176,168.4337,72.0728,288.0417,-5.2563999999999993e-05,-1.125e-05,0.0,0 STARLINK-4486,1 53540U 22101P   23018.74993958 -.00001125  00000-0 -52564-4 0  9998,2 53540  53.2176 168.4337 0001397  72.0728 288.0417 15.08850624 23308,6917.848000000001,95.437,540.679,538.746,0.0
53540.0,STARLINK-4486,PAYLOAD,2023-01-19 13:04:33,15.08829152,0.0001142,53.2181,164.8639,74.3899,285.7219,0.00011554,1.551e-05,0.0,0 STARLINK-4486,1 53540U 22101P   23019.54482973  .00001551  00000-0  11554-3 0  9991,2 53540  53.2181 164.8639 0001142  74.3899 285.7219 15.08829152 23420,6917.914000000001,95.438,540.569,538.989,0.0
53540.0,STARLINK-4486,PAYLOAD,2023-01-20 16:06:05,15.0884478,9.82e-05,53.2177,159.8142,53.6142,306.494,0.00019502,2.818e-05,0.0,0 STARLINK-4486,1 53540U 22101P   23020.67090011  .00002818  00000-0  19502-3 0  9993,2 53540  53.2177 159.8142 0000982  53.6142 306.4940 15.08844780 23594,6917.866,95.437,540.41,539.051,0.0
53540.0,STARLINK-4486,PAYLOAD,2023-01-21 09:35:21,15.08834916,0.0001239,53.2183,156.5427,68.9306,291.1818,1.3267e-05,-7.7e-07,0.0,0 STARLINK-4486,1 53540U 22101P   23021.39955313 -.00000077  00000-0  13267-4 0  9997,2 53540  53.2183 156.5427 0001239  68.9306 291.1818 15.08834916 23705,6917.896,95.438,540.618,538.904,0.0
53540.0,STARLINK-4486,PAYLOAD,2023-01-21 15:56:53,15.08846941,0.0001042999999999,53.218,155.3531,77.8018,282.309,0.00011616,1.562e-05,0.0,0 STARLINK-4486,1 53540U 22101P   23021.66450243  .00001562  00000-0  11616-3 0  9993,2 53540  53.2180 155.3531 0001043  77.8018 282.3090 15.08846941 23746,6917.859,95.437,540.446,539.003,0.0
53540.0,STARLINK-4486,PAYLOAD,2023-01-22 09:26:08,15.08841662,0.0001094,53.2183,152.082,72.7203,287.3909,-6.3095e-05,-1.292e-05,0.0,0 STARLINK-4486,1 53540U 22101P   23022.39315294 -.00001292  00000-0 -63095-4 0  9991,2 53540  53.2183 152.0820 0001094  72.7203 287.3909 15.08841662 23851,6917.875,95.437,540.497,538.9830000000001,0.0
53540.0,STARLINK-4486,PAYLOAD,2023-01-22 15:47:40,15.08850874,0.0001088999999999,53.2186,150.8921,74.5766,285.5347,2.1493e-05,5.4e-07,0.0,0 STARLINK-4486,1 53540U 22101P   23022.65810434  .00000054  00000-0  21493-4 0  9995,2 53540  53.2186 150.8921 0001089  74.5766 285.5347 15.08850874 23895,6917.847,95.437,540.466,538.9590000000001,0.0
53540.0,STARLINK-4486,PAYLOAD,2023-01-23 01:19:59,15.08843579,0.0001025,53.2187,149.108,87.109,273.0019,-2.6022e-05,-7.02e-06,0.0,0 STARLINK-4486,1 53540U 22101P   23023.05554870 -.00000702  00000-0 -26022-4 0  9994,2 53540  53.2187 149.1080 0001025  87.1090 273.0019 15.08843579 23952,6917.869000000001,95.437,540.444,539.025,0.0
53540.0,STARLINK-4486,PAYLOAD,2023-01-23 17:13:51,15.0883568,9.73e-05,53.2187,146.1347,96.0142,264.0961,2.4317e-05,9.9e-07,0.0,0 STARLINK-4486,1 53540U 22101P   23023.71795584  .00000099  00000-0  24317-4 0  9998,2 53540  53.2187 146.1347 0000973  96.0142 264.0961 15.08835680 24055,6917.894,95.438,540.432,539.085,0.0
